ORBCOMM FM25            
1 25479U 98053E   24148.77597895  .00001432  00000+0  53922-3 0  9991
2 25479  45.0076 291.5026 0003748 137.6129 222.5008 14.35752121342309
ORBCOMM FM26            
1 25480U 98053F   24148.65002307  .00001280  00000+0  49256-3 0  9995
2 25480  45.0069 286.2890 0006133 149.0147 211.1063 14.35182152342228
ORBCOMM FM27            
1 25481U 98053G   24148.69468149  .00001295  00000+0  49250-3 0  9990
2 25481  45.0062 292.1498 0001632 219.2476 140.8253 14.35737792342221
ORBCOMM FM28            
1 25482U 98053H   24148.32815215  .00001384  00000+0  51853-3 0  9992
2 25482  45.0048 232.2926 0004658 191.1974 168.8771 14.36169715342847
ORBCOMM FM31            
1 25981U 99065B   24148.57585620  .00001236  00000+0  47612-3 0  9995
2 25981  45.0226 105.8616 0004499 279.6076  80.4264 14.35308879278566
ORBCOMM FM32            
1 25982U 99065C   24148.63897891  .00001158  00000+0  45824-3 0  9995
2 25982  45.0154 119.4927 0007002 275.0989  84.9059 14.34309064279208
